WORLDVIEW-2 (WV-2)      
1 35946U 09055A   26065.24756311  .00000218  00000+0  86511-4 0  9999
2 35946  98.4699 140.1622 0004861 154.3058 205.8372 14.37908921860853
SMOS                    
1 36036U 09059A   26065.26580324  .00000440  00000+0  15437-3 0  9990
2 36036  98.4426 254.0929 0001014  81.4054 278.7249 14.39757474858643
YAOGAN-7                
1 36110U 09069A   26065.24926901  .00001065  00000+0  15461-3 0  9998
2 36110  98.0217 311.6777 0025042  14.3764 345.8153 14.77886086874429
TANDEM-X                
1 36605U 10030A   26064.58090785  .00001859  00000+0  91693-4 0  9998
2 36605  97.4474  73.7617 0001843  96.3332 263.8112 15.19152579870913
CARTOSAT-2B             
1 36795U 10035A   26065.27775221  .00001308  00000+0  18468-3 0  9992
2 36795  97.8656 116.6303 0012229 159.9453 200.2242 14.78793512844640
YAOGAN-10               
1 36834U 10038A   26065.33715343  .00002235  00000+0  26836-3 0  9993
2 36834  97.9078  89.5346 0001575  89.8854 326.8532 14.84997039841940
COSMO-SKYMED 4          
1 37216U 10060A   26065.28765814  .00000945  00000+0  12526-3 0  9992
2 37216  97.8855 250.3731 0001437  83.5324 276.6053 14.82158525829328
RESOURCESAT-2           
1 37387U 11015A   26065.26315644 -.00000212  00000+0 -76641-4 0  9990
2 37387  98.7729 133.3723 0006291 147.8357 212.3205 14.21495033771559
HAIYANG-2A              
1 37781U 11043A   26065.30300856  .00000142  00000+0  18410-3 0  9992
2 37781  99.3410  69.9583 0001115 287.2690  72.8340 13.78354332732506
RASAT                   
1 37791U 11044D   26065.26701421  .00000885  00000+0  16234-3 0  9998
2 37791  98.0565 158.2602 0021132 155.5590 288.7759 14.68050772778081
SRMSAT                  
1 37841U 11058D   26065.09828087  .00000474  00000+0  11348-3 0  9993
2 37841  19.9730 323.4416 0011854 149.6798 348.2789 14.11545916743237
PLEIADES 1A             
1 38012U 11076F   26065.29704534  .00000435  00000+0  10348-3 0  9992
2 38012  98.2051 141.7533 0001668  92.0748 358.5287 14.58536320756997
ZIYUAN 1-02C (ZY 1-02C) 
1 38038U 11079A   26065.32142872  .00000596  00000+0  21093-3 0  9995
2 38038  98.4180 134.7425 0005290 251.9519 196.9282 14.38119560744424
ARIRANG-3 (KOMPSAT-3)   
1 38338U 12025B   26065.31495387  .00000754  00000+0  15929-3 0  9998
2 38338  98.1058  24.6258 0006758  79.2226 280.9736 14.62096559736311
EXACTVIEW-1 (ADS-1B)    
1 38709U 12039C   26065.23330623  .00000223  00000+0  11524-3 0  9995
2 38709  98.9636 180.3759 0011864 107.5267 252.7208 14.24949380708040
SPOT 6                  
1 38755U 12047A   26065.29486237  .00000431  00000+0  10272-3 0  9994
2 38755  98.2227 133.7618 0001476  95.7060 264.4308 14.58538664718052
