[{"OBJECT_NAME":"WORLDVIEW-2 (WV-2)","OBJECT_ID":"2009-055A","EPOCH":"2026-03-06T05:56:29.452704","MEAN_MOTION":14.37908921,"ECCENTRICITY":0.00048618,"INCLINATION":98.4699,"RA_OF_ASC_NODE":140.1622,"ARG_OF_PERICENTER":154.3058,"MEAN_ANOMALY":205.8372,"EPHEMERIS_TYPE":0,"CLASSIFICATION_TYPE":"U","NORAD_CAT_ID":35946,"ELEMENT_SET_NO":999,"REV_AT_EPOCH":86085,"BSTAR":8.6511391e-5,"MEAN_MOTION_DOT":2.18e-6,"MEAN_MOTION_DDOT":0},{"OBJECT_NAME":"SMOS","OBJECT_ID":"2009-059A","EPOCH":"2026-03-06T06:22:45.399936","MEAN_MOTION":14.39757474,"ECCENTRICITY":0.00010141,"INCLINATION":98.4426,"RA_OF_ASC_NODE":254.0929,"ARG_OF_PERICENTER":81.4054,"MEAN_ANOMALY":278.7249,"EPHEMERIS_TYPE":0,"CLASSIFICATION_TYPE":"U","NORAD_CAT_ID":36036,"ELEMENT_SET_NO":999,"REV_AT_EPOCH":85864,"BSTAR":0.00015436569,"MEAN_MOTION_DOT":4.4e-6,"MEAN_MOTION_DDOT":0},{"OBJECT_NAME":"YAOGAN-7","OBJECT_ID":"2009-069A","EPOCH":"2026-03-06T05:58:56.842464","MEAN_MOTION":14.77886086,"ECCENTRICITY":0.00250425,"INCLINATION":98.0217,"RA_OF_ASC_NODE":311.6777,"ARG_OF_PERICENTER":14.3764,"MEAN_ANOMALY":345.8153,"EPHEMERIS_TYPE":0,"CLASSIFICATION_TYPE":"U","NORAD_CAT_ID":36110,"ELEMENT_SET_NO":999,"REV_AT_EPOCH":87442,"BSTAR":0.00015460812,"MEAN_MOTION_DOT":1.065e-5,"MEAN_MOTION_DDOT":0},{"OBJECT_NAME":"TANDEM-X","OBJECT_ID":"2010-030A","EPOCH":"2026-03-05T13:56:30.438240","MEAN_MOTION":15.19152579,"ECCENTRICITY":0.0001843,"INCLINATION":97.4474,"RA_OF_ASC_NODE":73.7617,"ARG_OF_PERICENTER":96.3332,"MEAN_ANOMALY":263.8112,"EPHEMERIS_TYPE":0,"CLASSIFICATION_TYPE":"U","NORAD_CAT_ID":36605,"ELEMENT_SET_NO":999,"REV_AT_EPOCH":87091,"BSTAR":9.1693e-5,"MEAN_MOTION_DOT":1.859e-5,"MEAN_MOTION_DDOT":0},{"OBJECT_NAME":"CARTOSAT-2B","OBJECT_ID":"2010-035A","EPOCH":"2026-03-06T06:39:57.790944","MEAN_MOTION":14.78793512,"ECCENTRICITY":0.00122294,"INCLINATION":97.8656,"RA_OF_ASC_NODE":116.6303,"ARG_OF_PERICENTER":159.9453,"MEAN_ANOMALY":200.2242,"EPHEMERIS_TYPE":0,"CLASSIFICATION_TYPE":"U","NORAD_CAT_ID":36795,"ELEMENT_SET_NO":999,"REV_AT_EPOCH":84464,"BSTAR":0.00018468248,"MEAN_MOTION_DOT":1.308e-5,"MEAN_MOTION_DDOT":0},{"OBJECT_NAME":"YAOGAN-10","OBJECT_ID":"2010-038A","EPOCH":"2026-03-06T08:05:30.056352","MEAN_MOTION":14.84997039,"ECCENTRICITY":0.00015755,"INCLINATION":97.9078,"RA_OF_ASC_NODE":89.5346,"ARG_OF_PERICENTER":89.8854,"MEAN_ANOMALY":326.8532,"EPHEMERIS_TYPE":0,"CLASSIFICATION_TYPE":"U","NORAD_CAT_ID":36834,"ELEMENT_SET_NO":999,"REV_AT_EPOCH":84194,"BSTAR":0.00026835936,"MEAN_MOTION_DOT":2.235e-5,"MEAN_MOTION_DDOT":0},{"OBJECT_NAME":"COSMO-SKYMED 4","OBJECT_ID":"2010-060A","EPOCH":"2026-03-06T06:54:13.663296","MEAN_MOTION":14.82158525,"ECCENTRICITY":0.00014373,"INCLINATION":97.8855,"RA_OF_ASC_NODE":250.3731,"ARG_OF_PERICENTER":83.5324,"MEAN_ANOMALY":276.6053,"EPHEMERIS_TYPE":0,"CLASSIFICATION_TYPE":"U","NORAD_CAT_ID":37216,"ELEMENT_SET_NO":999,"REV_AT_EPOCH":82932,"BSTAR":0.00012525794,"MEAN_MOTION_DOT":9.45e-6,"MEAN_MOTION_DDOT":0},{"OBJECT_NAME":"RESOURCESAT-2","OBJECT_ID":"2011-015A","EPOCH":"2026-03-06T06:18:56.716416","MEAN_MOTION":14.21495033,"ECCENTRICITY":0.00062911,"INCLINATION":98.7729,"RA_OF_ASC_NODE":133.3723,"ARG_OF_PERICENTER":147.8357,"MEAN_ANOMALY":212.3205,"EPHEMERIS_TYPE":0,"CLASSIFICATION_TYPE":"U","NORAD_CAT_ID":37387,"ELEMENT_SET_NO":999,"REV_AT_EPOCH":77155,"BSTAR":-7.6641348e-5,"MEAN_MOTION_DOT":-2.12e-6,"MEAN_MOTION_DDOT":0},{"OBJECT_NAME":"HAIYANG-2A","OBJECT_ID":"2011-043A","EPOCH":"2026-03-06T07:16:19.939584","MEAN_MOTION":13.78354332,"ECCENTRICITY":0.00011158,"INCLINATION":99.341,"RA_OF_ASC_NODE":69.9583,"ARG_OF_PERICENTER":287.269,"MEAN_ANOMALY":72.834,"EPHEMERIS_TYPE":0,"CLASSIFICATION_TYPE":"U","NORAD_CAT_ID":37781,"ELEMENT_SET_NO":999,"REV_AT_EPOCH":73250,"BSTAR":0.00018409965,"MEAN_MOTION_DOT":1.42e-6,"MEAN_MOTION_DDOT":0},{"OBJECT_NAME":"RASAT","OBJECT_ID":"2011-044D","EPOCH":"2026-03-06T06:24:30.027744","MEAN_MOTION":14.68050772,"ECCENTRICITY":0.00211326,"INCLINATION":98.0565,"RA_OF_ASC_NODE":158.2602,"ARG_OF_PERICENTER":155.559,"MEAN_ANOMALY":288.7759,"EPHEMERIS_TYPE":0,"CLASSIFICATION_TYPE":"U","NORAD_CAT_ID":37791,"ELEMENT_SET_NO":999,"REV_AT_EPOCH":77808,"BSTAR":0.0001623366,"MEAN_MOTION_DOT":8.85e-6,"MEAN_MOTION_DDOT":0},{"OBJECT_NAME":"SRMSAT","OBJECT_ID":"2011-058D","EPOCH":"2026-03-06T02:21:31.467168","MEAN_MOTION":14.11545916,"ECCENTRICITY":0.00118543,"INCLINATION":19.973,"RA_OF_ASC_NODE":323.4416,"ARG_OF_PERICENTER":149.6798,"MEAN_ANOMALY":348.2789,"EPHEMERIS_TYPE":0,"CLASSIFICATION_TYPE":"U","NORAD_CAT_ID":37841,"ELEMENT_SET_NO":999,"REV_AT_EPOCH":74323,"BSTAR":0.00011347661,"MEAN_MOTION_DOT":4.74e-6,"MEAN_MOTION_DDOT":0},{"OBJECT_NAME":"PLEIADES 1A","OBJECT_ID":"2011-076F","EPOCH":"2026-03-06T07:07:44.717376","MEAN_MOTION":14.5853632,"ECCENTRICITY":0.00016686,"INCLINATION":98.2051,"RA_OF_ASC_NODE":141.7533,"ARG_OF_PERICENTER":92.0748,"MEAN_ANOMALY":358.5287,"EPHEMERIS_TYPE":0,"CLASSIFICATION_TYPE":"U","NORAD_CAT_ID":38012,"ELEMENT_SET_NO":999,"REV_AT_EPOCH":75699,"BSTAR":0.00010348148,"MEAN_MOTION_DOT":4.35e-6,"MEAN_MOTION_DDOT":0},{"OBJECT_NAME":"ZIYUAN 1-02C (ZY 1-02C)","OBJECT_ID":"2011-079A","EPOCH":"2026-03-06T07:42:51.441408","MEAN_MOTION":14.3811956,"ECCENTRICITY":0.00052903,"INCLINATION":98.418,"RA_OF_ASC_NODE":134.7425,"ARG_OF_PERICENTER":251.9519,"MEAN_ANOMALY":196.9282,"EPHEMERIS_TYPE":0,"CLASSIFICATION_TYPE":"U","NORAD_CAT_ID":38038,"ELEMENT_SET_NO":999,"REV_AT_EPOCH":74442,"BSTAR":0.0002109328,"MEAN_MOTION_DOT":5.96e-6,"MEAN_MOTION_DDOT":0},{"OBJECT_NAME":"ARIRANG-3 (KOMPSAT-3)","OBJECT_ID":"2012-025B","EPOCH":"2026-03-06T07:33:32.014368","MEAN_MOTION":14.62096559,"ECCENTRICITY":0.00067582,"INCLINATION":98.1058,"RA_OF_ASC_NODE":24.6258,"ARG_OF_PERICENTER":79.2226,"MEAN_ANOMALY":280.9736,"EPHEMERIS_TYPE":0,"CLASSIFICATION_TYPE":"U","NORAD_CAT_ID":38338,"ELEMENT_SET_NO":999,"REV_AT_EPOCH":73631,"BSTAR":0.00015929372,"MEAN_MOTION_DOT":7.54e-6,"MEAN_MOTION_DDOT":0},{"OBJECT_NAME":"EXACTVIEW-1 (ADS-1B)","OBJECT_ID":"2012-039C","EPOCH":"2026-03-06T05:35:57.658272","MEAN_MOTION":14.2494938,"ECCENTRICITY":0.0011864,"INCLINATION":98.9636,"RA_OF_ASC_NODE":180.3759,"ARG_OF_PERICENTER":107.5267,"MEAN_ANOMALY":252.7208,"EPHEMERIS_TYPE":0,"CLASSIFICATION_TYPE":"U","NORAD_CAT_ID":38709,"ELEMENT_SET_NO":999,"REV_AT_EPOCH":70804,"BSTAR":0.000115238,"MEAN_MOTION_DOT":2.23e-6,"MEAN_MOTION_DDOT":0},{"OBJECT_NAME":"SPOT 6","OBJECT_ID":"2012-047A","EPOCH":"2026-03-06T07:04:36.108768","MEAN_MOTION":14.58538664,"ECCENTRICITY":0.00014768,"INCLINATION":98.2227,"RA_OF_ASC_NODE":133.7618,"ARG_OF_PERICENTER":95.706,"MEAN_ANOMALY":264.4308,"EPHEMERIS_TYPE":0,"CLASSIFICATION_TYPE":"U","NORAD_CAT_ID":38755,"ELEMENT_SET_NO":999,"REV_AT_EPOCH":71805,"BSTAR":0.00010272025,"MEAN_MOTION_DOT":4.31e-6,"MEAN_MOTION_DDOT":0}]
